0 DELTA 1 DEB
1 21544U 75052GY  13282.76290992  .00012223  00000-0  36981-2 0  2177
2 21544 100.0160 286.6291 0152874 092.0206 326.3888 14.35937985141374
0 DELTA 1 DEB
1 21544U 75052GY  13283.82071994  .00015140  00000-0  45735-2 0  2183
2 21544 100.0161 287.8570 0152761 089.0702 034.6023 14.35958665141525
0 DELTA 1 DEB
1 21544U 75052GY  13285.96931307  .00011381  00000-0  34420-2 0  2208
2 21544 100.0157 290.3516 0152631 083.0098 341.7841 14.36001080141832
0 DELTA 1 DEB
1 21544U 75052GY  13287.23579851  .00012256  00000-0  37034-2 0  2219
2 21544 100.0154 291.8220 0152555 079.4364 049.0585 14.36023178142013
0 DELTA 1 DEB
1 21544U 75052GY  13288.49463123  .00018457  00000-0  55594-2 0  2223
2 21544 100.0150 293.2835 0152461 075.8832 076.9047 14.36064484142199
0 DELTA 1 DEB
1 21544U 75052GY  13289.53435550  .00016544  00000-0  49847-2 0  2232
2 21544 100.0146 294.4908 0152283 072.9560 052.1458 14.36093729142349
0 DELTA 1 DEB
1 21544U 75052GY  13290.51522719  .00017255  00000-0  51973-2 0  2240
2 21544 100.0147 295.6301 0152071 070.1905 083.2169 14.36115530142482
0 DELTA 1 DEB
1 21544U 75052GY  13291.95942167  .00012780  00000-0  38536-2 0  2251
2 21544 100.0146 297.3063 0152069 066.1061 349.8247 14.36153435142697
0 DELTA 1 DEB
1 21544U 75052GY  13293.00554873  .00013197  00000-0  39773-2 0  2260
2 21544 100.0148 298.5209 0151947 063.1474 358.5054 14.36176493142842
0 DELTA 1 DEB
1 21544U 75052GY  13294.48659545  .00016442  00000-0  49461-2 0  2277
2 21544 100.0153 300.2405 0151837 058.9795 095.9448 14.36210380143050
0 DELTA 1 DEB
1 21544U 75052GY  13295.93398753  .00017217  00000-0  51755-2 0  2280
2 21544 100.0157 301.9215 0151616 054.8307 019.6455 14.36249341143263
